[{"OBJECT_NAME":"STARLINK-6305","OBJECT_ID":"2023-061W","EPOCH":"2026-03-08T09:13:35.915808","MEAN_MOTION":15.02540998,"ECCENTRICITY":0.00014665,"INCLINATION":43.004,"RA_OF_ASC_NODE":191.9609,"ARG_OF_PERICENTER":265.0576,"MEAN_ANOMALY":95.0099,"EPHEMERIS_TYPE":0,"CLASSIFICATION_TYPE":"U","NORAD_CAT_ID":56394,"ELEMENT_SET_NO":999,"REV_AT_EPOCH":15670,"BSTAR":6.9100854e-5,"MEAN_MOTION_DOT":7.3e-6,"MEAN_MOTION_DDOT":0},{"OBJECT_NAME":"STRIX-2","OBJECT_ID":"2024-248A","EPOCH":"2026-03-09T23:00:54.819648","MEAN_MOTION":15.07630986,"ECCENTRICITY":0.00151844,"INCLINATION":97.6197,"RA_OF_ASC_NODE":25.3276,"ARG_OF_PERICENTER":319.5195,"MEAN_ANOMALY":40.4902,"EPHEMERIS_TYPE":0,"CLASSIFICATION_TYPE":"U","NORAD_CAT_ID":62406,"ELEMENT_SET_NO":999,"REV_AT_EPOCH":6663,"BSTAR":0.00066021351,"MEAN_MOTION_DOT":0.00010025,"MEAN_MOTION_DDOT":0}]
